[{"OBJECT_NAME":"SWARM B","OBJECT_ID":"2013-067A","EPOCH":"2026-03-09T22:20:48.706656","MEAN_MOTION":15.27862638,"ECCENTRICITY":0.00036996,"INCLINATION":87.749,"RA_OF_ASC_NODE":12.4162,"ARG_OF_PERICENTER":86.3179,"MEAN_ANOMALY":273.8493,"EPHEMERIS_TYPE":0,"CLASSIFICATION_TYPE":"U","NORAD_CAT_ID":39451,"ELEMENT_SET_NO":999,"REV_AT_EPOCH":66808,"BSTAR":0.00020534236,"MEAN_MOTION_DOT":5.616e-5,"MEAN_MOTION_DDOT":0},{"OBJECT_NAME":"STARLINK-30086","OBJECT_ID":"2023-056M","EPOCH":"2026-03-09T22:00:01.999584","MEAN_MOTION":15.26715467,"ECCENTRICITY":0.00015248,"INCLINATION":42.9996,"RA_OF_ASC_NODE":207.424,"ARG_OF_PERICENTER":269.6985,"MEAN_ANOMALY":184.367,"EPHEMERIS_TYPE":0,"CLASSIFICATION_TYPE":"U","NORAD_CAT_ID":56297,"ELEMENT_SET_NO":999,"REV_AT_EPOCH":578,"BSTAR":0.00171194,"MEAN_MOTION_DOT":0.00045913,"MEAN_MOTION_DDOT":0}]
